H1 CPF  1  DLR 2021 10 26 10  7992 technosat            
H2  1704205 6203    42829 2021 10 26 00 00 00 2021 11 02 00 00 00    60 1 1  0 0 0
H9
10 0 59516   7200.000000  0         60317.909      -5418723.332      -4412408.731
10 0 59516   7260.000000  0        -40929.666      -5126905.492      -4749191.056
10 0 59516   7320.000000  0       -139355.097      -4812804.449      -5065996.637
10 0 59516   7380.000000  0       -234358.627      -4477771.081      -5361505.390
10 0 59516   7440.000000  0       -325367.444      -4123246.562      -5634487.563
10 0 59516   7500.000000  0       -411838.760      -3750755.971      -5883808.469
10 0 59516   7560.000000  0       -493262.681      -3361901.620      -6108432.818
10 0 59516   7620.000000  0       -569164.893      -2958356.092      -6307428.647
10 0 59516   7680.000000  0       -639109.135      -2541855.031      -6479970.801
10 0 59516   7740.000000  0       -702699.437      -2114189.731      -6625343.981
10 0 59516   7800.000000  0       -759582.134      -1677199.575      -6742945.376
10 0 59516   7860.000000  0       -809447.659      -1232764.312      -6832286.916
10 0 59516   7920.000000  0       -852032.078       -782796.163      -6892997.108
10 0 59516   7980.000000  0       -887118.363       -329231.793      -6924822.398
10 0 59516   8040.000000  0       -914537.423        125975.737      -6927628.052
10 0 59516   8100.000000  0       -934168.890        580865.013      -6901398.694
10 0 59516   8160.000000  0       -945941.644       1033474.440      -6846238.491
10 0 59516   8220.000000  0       -949834.079       1481850.453      -6762370.789
10 0 59516   8280.000000  0       -945874.133       1924055.607      -6650137.368
10 0 59516   8340.000000  0       -934139.033       2358176.707      -6509997.342
10 0 59516   8400.000000  0       -914754.762       2782332.915      -6342525.625
10 0 59516   8460.000000  0       -887895.308       3194683.806      -6148410.942
10 0 59516   8520.000000  0       -853781.643       3593437.310      -5928453.338
10 0 59516   8580.000000  0       -812680.409       3976857.447      -5683561.265
10 0 59516   8640.000000  0       -764902.373       4343271.922      -5414748.305
10 0 59516   8700.000000  0       -710800.661       4691079.581      -5123129.419
10 0 59516   8760.000000  0       -650768.733       5018757.627      -4809916.722
10 0 59516   8820.000000  0       -585238.130       5324868.549      -4476414.826
10 0 59516   8880.000000  0       -514675.986       5608066.745      -4124015.744
10 0 59516   8940.000000  0       -439582.323       5867104.780      -3754193.383
10 0 59516   9000.000000  0       -360487.134       6100839.255      -3368497.653
10 0 59516   9060.000000  0       -277947.275       6308236.292      -2968548.227
10 0 59516   9120.000000  0       -192543.182       6488376.588      -2556027.873
10 0 59516   9180.000000  0       -104875.432       6640459.940      -2132675.459
10 0 59516   9240.000000  0        -15561.173       6763809.268      -1700278.653
10 0 59516   9300.000000  0         74769.591       6857874.088      -1260666.322
10 0 59516   9360.000000  0        165477.816       6922233.369       -815700.681
10 0 59516   9420.000000  0        255919.307       6956597.796       -367269.256
10 0 59516   9480.000000  0        345448.673       6960811.424         82723.352
10 0 59516   9540.000000  0        433423.306       6934852.654        532363.843
10 0 59516   9600.000000  0        519207.368       6878834.526        979738.661
10 0 59516   9660.000000  0        602175.723       6793004.343       1422942.457
10 0 59516   9720.000000  0        681717.783       6677742.621       1860086.539
10 0 59516   9780.000000  0        757241.295       6533561.338       2289307.226
10 0 59516   9840.000000  0        828176.002       6361101.629       2708773.994
10 0 59516   9900.000000  0        893977.237       6161130.981       3116697.634
10 0 59516   9960.000000  0        954129.350       5934539.507       3511338.279
10 0 59516  10020.000000  0       1008149.026       5682335.706       3891012.808
10 0 59516  10080.000000  0       1055588.506       5405642.082       4254102.332
10 0 59516  10140.000000  0       1096038.423       5105689.698       4599059.684
10 0 59516  10200.000000  0       1129130.269       4783811.985       4924415.963
10 0 59516  10260.000000  0       1154538.857       4441438.568       5228786.627
10 0 59516  10320.000000  0       1171984.569       4080088.603       5510877.356
10 0 59516  10380.000000  0       1181235.285       3701363.803       5769489.491
10 0 59516  10440.000000  0       1182108.001       3306941.051       6003525.145
10 0 59516  10500.000000  0       1174470.175       2898564.659       6211991.766
10 0 59516  10560.000000  0       1158240.792       2478038.409       6394006.218
10 0 59516  10620.000000  0       1133391.155       2047217.368       6548798.420
10 0 59516  10680.000000  0       1099945.391       1607999.453       6675714.483
10 0 59516  10740.000000  0       1057980.644       1162316.869       6774219.261
10 0 59516  10800.000000  0       1007626.990        712127.510       6843898.414
10 0 59516  10860.000000  0        949067.059        259406.328       6884460.024
10 0 59516  10920.000000  0        882535.365       -193863.367       6895735.817
10 0 59516  10980.000000  0        808317.322       -645698.753       6877681.851
10 0 59516  11040.000000  0        726747.996      -1094126.283       6830378.586
10 0 59516  11100.000000  0        638210.564      -1537190.355       6754030.504
10 0 59516  11160.000000  0        543134.475      -1972961.921       6648965.207
10 0 59516  11220.000000  0        441993.380      -2399546.969       6515632.085
10 0 59516  11280.000000  0        335302.762      -2815094.965       6354600.397
10 0 59516  11340.000000  0        223617.349      -3217806.950       6166556.690
10 0 59516  11400.000000  0        107528.339      -3605943.309       5952301.921
10 0 59516  11460.000000  0        -12339.646      -3977831.384       5712748.138
10 0 59516  11520.000000  0       -135331.779      -4331872.750       5448914.693
10 0 59516  11580.000000  0       -260766.417      -4666550.228       5161924.086
10 0 59516  11640.000000  0       -387938.732      -4980434.666       4852997.362
10 0 59516  11700.000000  0       -516124.530      -5272191.362       4523448.962
10 0 59516  11760.000000  0       -644584.197      -5540586.004       4174681.076
10 0 59516  11820.000000  0       -772566.773      -5784490.082       3808177.607
10 0 59516  11880.000000  0       -899314.122      -6002885.819       3425497.818
10 0 59516  11940.000000  0      -1024065.189      -6194870.623       3028269.620
10 0 59516  12000.000000  0      -1146060.250      -6359660.974       2618182.516
10 0 59516  12060.000000  0      -1264545.175      -6496595.775       2196980.346
10 0 59516  12120.000000  0      -1378775.813      -6605139.223       1766453.754
10 0 59516  12180.000000  0      -1488022.370      -6684882.999       1328432.275
10 0 59516  12240.000000  0      -1591573.628      -6735547.735        884776.304
10 0 59516  12300.000000  0      -1688741.081      -6756983.932        437368.968
10 0 59516  12360.000000  0      -1778862.977      -6749172.231        -11892.113
10 0 59516  12420.000000  0      -1861308.224      -6712223.046       -461103.090
10 0 59516  12480.000000  0      -1935480.146      -6646375.593       -908362.156
10 0 59516  12540.000000  0      -2000820.070      -6551996.307      -1351777.761
10 0 59516  12600.000000  0      -2056810.726      -6429576.668      -1789476.764
10 0 59516  12660.000000  0      -2102979.432      -6279730.446      -2219612.457
10 0 59516  12720.000000  0      -2138901.060      -6103190.371      -2640372.453
10 0 59516  12780.000000  0      -2164200.734      -5900804.251      -3049986.369
10 0 59516  12840.000000  0      -2178556.272      -5673530.553      -3446733.253
10 0 59516  12900.000000  0      -2181700.336      -5422433.519      -3828948.719
10 0 59516  12960.000000  0      -2173422.302      -5148677.845      -4195031.763
10 0 59516  13020.000000  0      -2153569.837      -4853522.973      -4543451.238
10 0 59516  13080.000000  0      -2122050.185      -4538317.040      -4872751.990
10 0 59516  13140.000000  0      -2078831.165      -4204490.492      -5181560.619
10 0 59516  13200.000000  0      -2023941.858      -3853549.423      -5468590.886
10 0 59516  13260.000000  0      -1957473.005      -3487068.652      -5732648.724
10 0 59516  13320.000000  0      -1879577.094      -3106684.566      -5972636.866
10 0 59516  13380.000000  0      -1790468.130      -2714087.742      -6187559.049
10 0 59516  13440.000000  0      -1690421.100      -2311015.411      -6376523.747
10 0 59516  13500.000000  0      -1579771.159      -1899243.838      -6538747.467
10 0 59516  13560.000000  0      -1458912.543      -1480580.625      -6673557.649
10 0 59516  13620.000000  0      -1328297.206      -1056856.936      -6780395.134
10 0 59516  13680.000000  0      -1188433.194       -629919.700      -6858816.211
10 0 59516  13740.000000  0      -1039882.726       -201623.794      -6908494.255
10 0 59516  13800.000000  0       -883259.975        226175.726      -6929220.921
10 0 59516  13860.000000  0       -719228.606        651631.331      -6920906.967
10 0 59516  13920.000000  0       -548499.076       1072910.768      -6883582.656
10 0 59516  13980.000000  0       -371825.693       1488204.663      -6817397.645
10 0 59516  14040.000000  0       -190003.490       1895733.980      -6722620.566
10 0 59516  14100.000000  0         -3864.805       2293757.477      -6599638.220
10 0 59516  14160.000000  0        185724.393       2680579.001      -6448954.295
10 0 59516  14220.000000  0        377868.404       3054554.649      -6271187.643
10 0 59516  14280.000000  0        571645.885       3414099.726      -6067070.009
10 0 59516  14340.000000  0        766114.068       3757695.389      -5837443.371
99
